SL-27 R/B               
1 40354U 14084B   17345.88713920  .00000926  00000-0  24978-4 0  9992
2 40354  74.7385 126.3436 0038291  57.8811 302.6107 15.38699514166788
